<?xml version='1.0' encoding='UTF-8' standalone='yes' ?>
<gpx xmlns="http://www.topografix.com/GPX/1/1" xmlns:geotracker="http://ilyabogdanovich.com/gpx/extensions/geotracker" xmlns:xsi="http://www.w3.org/2001/XMLSchema-instance" xsi:schemaLocation="http://www.topografix.com/GPX/1/1 http://www.topografix.com/GPX/1/1/gpx.xsd" version="1.1" creator="Recorded in Geo Tracker for Android from Ilya Bogdanovich">
  <metadata>
    <name>weight bridge 6,7 to h point waste dump</name>
    <desc>weight bridge 6,7 to h point waste dump</desc>
    <author>
      <name>Recorded in Geo Tracker for Android from Ilya Bogdanovich</name>
      <link href="https://play.google.com/store/apps/details?id=com.ilyabogdanovich.geotracker" />
    </author>
    <link href="https://play.google.com/store/apps/details?id=com.ilyabogdanovich.geotracker" />
    <time>2026-07-30T06:45:44Z</time>
  </metadata>
  <wpt lat="20.39593836" lon="81.05769685">
    <ele>359.86</ele>
    <time>2026-07-30T06:53:29Z</time>
    <name>H point dump waste</name>
    <desc>Speed: 1.21 mph
Elevation: 1174 ft
Time from start: 00:07:36
Distance from start: 0.89 mi</desc>
    <extensions>
      <geotracker:meta visited="1" />
    </extensions>
  </wpt>
  <trk>
    <name>weight bridge 6,7 to h point waste dump</name>
    <desc>weight bridge 6,7 to h point waste dump</desc>
    <src>Recorded in Geo Tracker for Android from Ilya Bogdanovich</src>
    <link href="https://play.google.com/store/apps/details?id=com.ilyabogdanovich.geotracker" />
    <extensions>
      <geotracker:meta>
        <geotracker:length>1478.87</geotracker:length>
        <geotracker:duration>502439</geotracker:duration>
        <geotracker:creationtime>2026-07-30T06:45:44Z</geotracker:creationtime>
        <geotracker:activity>0</geotracker:activity>
      </geotracker:meta>
    </extensions>
    <trkseg>
      <trkpt lat="20.40426268" lon="81.06489326">
        <ele>410.02</ele>
        <time>2026-07-30T06:45:53Z</time>
        <extensions>
          <geotracker:meta c="4.88" s="1.65" />
        </extensions>
      </trkpt>
      <trkpt lat="20.40429441" lon="81.06477372">
        <ele>406.27</ele>
        <time>2026-07-30T06:45:56Z</time>
        <extensions>
          <geotracker:meta c="4.84" s="5.25" />
        </extensions>
      </trkpt>
      <trkpt lat="20.40431971" lon="81.06466932">
        <ele>405.96</ele>
        <time>2026-07-30T06:45:58Z</time>
        <extensions>
          <geotracker:meta c="5.03" s="5.56" />
        </extensions>
      </trkpt>
      <trkpt lat="20.40436122" lon="81.06455457">
        <ele>406.73</ele>
        <time>2026-07-30T06:46:00Z</time>
        <extensions>
          <geotracker:meta c="5" s="5.85" />
        </extensions>
      </trkpt>
      <trkpt lat="20.40441179" lon="81.06441254">
        <ele>407.65</ele>
        <time>2026-07-30T06:46:02Z</time>
        <extensions>
          <geotracker:meta c="5.07" s="5.7" />
        </extensions>
      </trkpt>
      <trkpt lat="20.40444137" lon="81.06432042">
        <ele>407.72</ele>
        <time>2026-07-30T06:46:04Z</time>
        <extensions>
          <geotracker:meta c="5.05" s="5.03" />
        </extensions>
      </trkpt>
      <trkpt lat="20.40447639" lon="81.06421408">
        <ele>408.07</ele>
        <time>2026-07-30T06:46:06Z</time>
        <extensions>
          <geotracker:meta c="4.86" s="5.5" />
        </extensions>
      </trkpt>
      <trkpt lat="20.40448961" lon="81.0641055">
        <ele>408.84</ele>
        <time>2026-07-30T06:46:08Z</time>
        <extensions>
          <geotracker:meta c="4.75" s="5.45" />
        </extensions>
      </trkpt>
      <trkpt lat="20.40449386" lon="81.06398757">
        <ele>408.01</ele>
        <time>2026-07-30T06:46:12Z</time>
        <extensions>
          <geotracker:meta c="4.75" s="3.79" />
        </extensions>
      </trkpt>
      <trkpt lat="20.40450387" lon="81.06388889">
        <ele>405.97</ele>
        <time>2026-07-30T06:46:15Z</time>
        <extensions>
          <geotracker:meta c="4.86" s="2.96" />
        </extensions>
      </trkpt>
      <trkpt lat="20.40450031" lon="81.06378794">
        <ele>405.93</ele>
        <time>2026-07-30T06:46:23Z</time>
        <extensions>
          <geotracker:meta c="4.51" s="0.93" />
        </extensions>
      </trkpt>
      <trkpt lat="20.40450286" lon="81.06368109">
        <ele>408.41</ele>
        <time>2026-07-30T06:46:32Z</time>
        <extensions>
          <geotracker:meta c="4.65" s="1.88" />
        </extensions>
      </trkpt>
      <trkpt lat="20.40452966" lon="81.06357046">
        <ele>407.22</ele>
        <time>2026-07-30T06:46:36Z</time>
        <extensions>
          <geotracker:meta c="4.99" s="3.78" />
        </extensions>
      </trkpt>
      <trkpt lat="20.40454765" lon="81.06346695">
        <ele>407.74</ele>
        <time>2026-07-30T06:46:39Z</time>
        <extensions>
          <geotracker:meta c="4.86" s="4.24" />
        </extensions>
      </trkpt>
      <trkpt lat="20.4045427" lon="81.06335109">
        <ele>403.7</ele>
        <time>2026-07-30T06:46:43Z</time>
        <extensions>
          <geotracker:meta c="4.56" s="3.29" />
        </extensions>
      </trkpt>
      <trkpt lat="20.40449455" lon="81.06326738">
        <ele>399.12</ele>
        <time>2026-07-30T06:46:46Z</time>
        <extensions>
          <geotracker:meta c="4.04" s="3.43" />
        </extensions>
      </trkpt>
      <trkpt lat="20.40442352" lon="81.06317027">
        <ele>398.77</ele>
        <time>2026-07-30T06:46:50Z</time>
        <extensions>
          <geotracker:meta c="4.01" s="3.26" />
        </extensions>
      </trkpt>
      <trkpt lat="20.40435121" lon="81.06309761">
        <ele>398.7</ele>
        <time>2026-07-30T06:46:53Z</time>
        <extensions>
          <geotracker:meta c="3.83" s="3.82" />
        </extensions>
      </trkpt>
      <trkpt lat="20.40426763" lon="81.06301781">
        <ele>397.31</ele>
        <time>2026-07-30T06:46:56Z</time>
        <extensions>
          <geotracker:meta c="3.8" s="4.33" />
        </extensions>
      </trkpt>
      <trkpt lat="20.40415903" lon="81.06293643">
        <ele>395.95</ele>
        <time>2026-07-30T06:46:59Z</time>
        <extensions>
          <geotracker:meta c="3.77" s="5.08" />
        </extensions>
      </trkpt>
      <trkpt lat="20.40408423" lon="81.06288047">
        <ele>394.31</ele>
        <time>2026-07-30T06:47:01Z</time>
        <extensions>
          <geotracker:meta c="3.8" s="5.12" />
        </extensions>
      </trkpt>
      <trkpt lat="20.40400995" lon="81.0628212">
        <ele>393.5</ele>
        <time>2026-07-30T06:47:03Z</time>
        <extensions>
          <geotracker:meta c="3.79" s="4.37" />
        </extensions>
      </trkpt>
      <trkpt lat="20.40392993" lon="81.06275541">
        <ele>392.03</ele>
        <time>2026-07-30T06:47:06Z</time>
        <extensions>
          <geotracker:meta c="3.74" s="3.47" />
        </extensions>
      </trkpt>
      <trkpt lat="20.40385517" lon="81.06268006">
        <ele>389.87</ele>
        <time>2026-07-30T06:47:09Z</time>
        <extensions>
          <geotracker:meta c="4.02" s="4.07" />
        </extensions>
      </trkpt>
      <trkpt lat="20.40372481" lon="81.06262337">
        <ele>388.81</ele>
        <time>2026-07-30T06:47:12Z</time>
        <extensions>
          <geotracker:meta c="3.5" s="5.07" />
        </extensions>
      </trkpt>
      <trkpt lat="20.40358797" lon="81.06259137">
        <ele>388.74</ele>
        <time>2026-07-30T06:47:15Z</time>
        <extensions>
          <geotracker:meta c="3.15" s="5.37" />
        </extensions>
      </trkpt>
      <trkpt lat="20.40348964" lon="81.06261699">
        <ele>388.23</ele>
        <time>2026-07-30T06:47:17Z</time>
        <extensions>
          <geotracker:meta c="2.89" s="4.94" />
        </extensions>
      </trkpt>
      <trkpt lat="20.40334893" lon="81.06260525">
        <ele>385.08</ele>
        <time>2026-07-30T06:47:20Z</time>
        <extensions>
          <geotracker:meta c="3.04" s="5.65" />
        </extensions>
      </trkpt>
      <trkpt lat="20.40323623" lon="81.06262076">
        <ele>382.57</ele>
        <time>2026-07-30T06:47:22Z</time>
        <extensions>
          <geotracker:meta c="2.99" s="5.55" />
        </extensions>
      </trkpt>
      <trkpt lat="20.40312197" lon="81.06265024">
        <ele>381.68</ele>
        <time>2026-07-30T06:47:25Z</time>
        <extensions>
          <geotracker:meta c="2.96" s="4.66" />
        </extensions>
      </trkpt>
      <trkpt lat="20.4029996" lon="81.06269649">
        <ele>381.64</ele>
        <time>2026-07-30T06:47:28Z</time>
        <extensions>
          <geotracker:meta c="2.91" s="4.75" />
        </extensions>
      </trkpt>
      <trkpt lat="20.40290816" lon="81.06272036">
        <ele>381.31</ele>
        <time>2026-07-30T06:47:30Z</time>
        <extensions>
          <geotracker:meta c="2.93" s="5.25" />
        </extensions>
      </trkpt>
      <trkpt lat="20.40281933" lon="81.06273834">
        <ele>381.31</ele>
        <time>2026-07-30T06:47:32Z</time>
        <extensions>
          <geotracker:meta c="3.04" s="5.26" />
        </extensions>
      </trkpt>
      <trkpt lat="20.40272083" lon="81.06273955">
        <ele>379.13</ele>
        <time>2026-07-30T06:47:34Z</time>
        <extensions>
          <geotracker:meta c="3.09" s="5.66" />
        </extensions>
      </trkpt>
      <trkpt lat="20.40261647" lon="81.06273996">
        <ele>378.03</ele>
        <time>2026-07-30T06:47:36Z</time>
        <extensions>
          <geotracker:meta c="3.13" s="5.87" />
        </extensions>
      </trkpt>
      <trkpt lat="20.40251009" lon="81.06275117">
        <ele>377.02</ele>
        <time>2026-07-30T06:47:38Z</time>
        <extensions>
          <geotracker:meta c="3.16" s="5.47" />
        </extensions>
      </trkpt>
      <trkpt lat="20.40241205" lon="81.06274046">
        <ele>376.96</ele>
        <time>2026-07-30T06:47:40Z</time>
        <extensions>
          <geotracker:meta c="3.24" s="5.48" />
        </extensions>
      </trkpt>
      <trkpt lat="20.40230255" lon="81.06272352">
        <ele>376.49</ele>
        <time>2026-07-30T06:47:42Z</time>
        <extensions>
          <geotracker:meta c="3.33" s="6.07" />
        </extensions>
      </trkpt>
      <trkpt lat="20.40218548" lon="81.0627055">
        <ele>376.14</ele>
        <time>2026-07-30T06:47:44Z</time>
        <extensions>
          <geotracker:meta c="3.33" s="6.59" />
        </extensions>
      </trkpt>
      <trkpt lat="20.402071" lon="81.06267585">
        <ele>373.83</ele>
        <time>2026-07-30T06:47:46Z</time>
        <extensions>
          <geotracker:meta c="3.24" s="5.96" />
        </extensions>
      </trkpt>
      <trkpt lat="20.40197239" lon="81.06265589">
        <ele>373.11</ele>
        <time>2026-07-30T06:47:48Z</time>
        <extensions>
          <geotracker:meta c="3.35" s="5.28" />
        </extensions>
      </trkpt>
      <trkpt lat="20.40186797" lon="81.06263843">
        <ele>371.4</ele>
        <time>2026-07-30T06:47:50Z</time>
        <extensions>
          <geotracker:meta c="3.39" s="5.89" />
        </extensions>
      </trkpt>
      <trkpt lat="20.4017723" lon="81.06261877">
        <ele>370.56</ele>
        <time>2026-07-30T06:47:52Z</time>
        <extensions>
          <geotracker:meta c="3.31" s="5.8" />
        </extensions>
      </trkpt>
      <trkpt lat="20.40166723" lon="81.06260412">
        <ele>370.22</ele>
        <time>2026-07-30T06:47:54Z</time>
        <extensions>
          <geotracker:meta c="3.34" s="5.82" />
        </extensions>
      </trkpt>
      <trkpt lat="20.4015509" lon="81.06259306">
        <ele>368.68</ele>
        <time>2026-07-30T06:47:56Z</time>
        <extensions>
          <geotracker:meta c="3.33" s="6.31" />
        </extensions>
      </trkpt>
      <trkpt lat="20.40143265" lon="81.06256424">
        <ele>368.15</ele>
        <time>2026-07-30T06:47:58Z</time>
        <extensions>
          <geotracker:meta c="3.36" s="6.29" />
        </extensions>
      </trkpt>
      <trkpt lat="20.40133846" lon="81.06254379">
        <ele>368.74</ele>
        <time>2026-07-30T06:48:00Z</time>
        <extensions>
          <geotracker:meta c="3.32" s="5.59" />
        </extensions>
      </trkpt>
      <trkpt lat="20.40124642" lon="81.06251669">
        <ele>367.54</ele>
        <time>2026-07-30T06:48:02Z</time>
        <extensions>
          <geotracker:meta c="3.44" s="5.5" />
        </extensions>
      </trkpt>
      <trkpt lat="20.40116234" lon="81.06245841">
        <ele>365.37</ele>
        <time>2026-07-30T06:48:04Z</time>
        <extensions>
          <geotracker:meta c="3.62" s="5.66" />
        </extensions>
      </trkpt>
      <trkpt lat="20.40104945" lon="81.06238178">
        <ele>366.57</ele>
        <time>2026-07-30T06:48:07Z</time>
        <extensions>
          <geotracker:meta c="3.73" s="4.81" />
        </extensions>
      </trkpt>
      <trkpt lat="20.40097823" lon="81.06228718">
        <ele>367.71</ele>
        <time>2026-07-30T06:48:10Z</time>
        <extensions>
          <geotracker:meta c="4.24" s="3.68" />
        </extensions>
      </trkpt>
      <trkpt lat="20.40095773" lon="81.0621753">
        <ele>366.25</ele>
        <time>2026-07-30T06:48:13Z</time>
        <extensions>
          <geotracker:meta c="4.58" s="3.99" />
        </extensions>
      </trkpt>
      <trkpt lat="20.40093615" lon="81.06206657">
        <ele>366.04</ele>
        <time>2026-07-30T06:48:16Z</time>
        <extensions>
          <geotracker:meta c="4.34" s="3.99" />
        </extensions>
      </trkpt>
      <trkpt lat="20.4008812" lon="81.06196095">
        <ele>365.55</ele>
        <time>2026-07-30T06:48:19Z</time>
        <extensions>
          <geotracker:meta c="4.28" s="4.05" />
        </extensions>
      </trkpt>
      <trkpt lat="20.40083902" lon="81.06187307">
        <ele>364.85</ele>
        <time>2026-07-30T06:48:22Z</time>
        <extensions>
          <geotracker:meta c="4.2" s="3.09" />
        </extensions>
      </trkpt>
      <trkpt lat="20.40079487" lon="81.06177256">
        <ele>363.97</ele>
        <time>2026-07-30T06:48:26Z</time>
        <extensions>
          <geotracker:meta c="4.16" s="2.43" />
        </extensions>
      </trkpt>
      <trkpt lat="20.40073623" lon="81.06168129">
        <ele>362.81</ele>
        <time>2026-07-30T06:48:31Z</time>
        <extensions>
          <geotracker:meta c="3.81" s="1.92" />
        </extensions>
      </trkpt>
      <trkpt lat="20.40064568" lon="81.06163694">
        <ele>362.34</ele>
        <time>2026-07-30T06:48:35Z</time>
        <extensions>
          <geotracker:meta c="3.3" s="2.77" />
        </extensions>
      </trkpt>
      <trkpt lat="20.40051904" lon="81.06159743">
        <ele>362.69</ele>
        <time>2026-07-30T06:48:38Z</time>
        <extensions>
          <geotracker:meta c="3.33" s="4.34" />
        </extensions>
      </trkpt>
      <trkpt lat="20.40039993" lon="81.06155233">
        <ele>362.32</ele>
        <time>2026-07-30T06:48:41Z</time>
        <extensions>
          <geotracker:meta c="3.43" s="4.43" />
        </extensions>
      </trkpt>
      <trkpt lat="20.40029858" lon="81.06153269">
        <ele>363.57</ele>
        <time>2026-07-30T06:48:44Z</time>
        <extensions>
          <geotracker:meta c="3.37" s="4.01" />
        </extensions>
      </trkpt>
      <trkpt lat="20.40018964" lon="81.06149451">
        <ele>365.42</ele>
        <time>2026-07-30T06:48:47Z</time>
        <extensions>
          <geotracker:meta c="3.52" s="4.83" />
        </extensions>
      </trkpt>
      <trkpt lat="20.40010267" lon="81.06145926">
        <ele>365.88</ele>
        <time>2026-07-30T06:48:49Z</time>
        <extensions>
          <geotracker:meta c="3.46" s="4.66" />
        </extensions>
      </trkpt>
      <trkpt lat="20.3999962" lon="81.06145408">
        <ele>367.27</ele>
        <time>2026-07-30T06:48:52Z</time>
        <extensions>
          <geotracker:meta c="3.15" s="2.59" />
        </extensions>
      </trkpt>
      <trkpt lat="20.39990003" lon="81.06143931">
        <ele>368.89</ele>
        <time>2026-07-30T06:48:56Z</time>
        <extensions>
          <geotracker:meta c="3.51" s="2.72" />
        </extensions>
      </trkpt>
      <trkpt lat="20.39980701" lon="81.06140088">
        <ele>371.22</ele>
        <time>2026-07-30T06:48:59Z</time>
        <extensions>
          <geotracker:meta c="3.51" s="3.38" />
        </extensions>
      </trkpt>
      <trkpt lat="20.39968686" lon="81.06135873">
        <ele>370.22</ele>
        <time>2026-07-30T06:49:02Z</time>
        <extensions>
          <geotracker:meta c="3.5" s="4.39" />
        </extensions>
      </trkpt>
      <trkpt lat="20.39959243" lon="81.06133096">
        <ele>366.6</ele>
        <time>2026-07-30T06:49:04Z</time>
        <extensions>
          <geotracker:meta c="3.43" s="3.95" />
        </extensions>
      </trkpt>
      <trkpt lat="20.39946547" lon="81.0613027">
        <ele>367.45</ele>
        <time>2026-07-30T06:49:07Z</time>
        <extensions>
          <geotracker:meta c="3.45" s="3.76" />
        </extensions>
      </trkpt>
      <trkpt lat="20.39936364" lon="81.06125745">
        <ele>369.06</ele>
        <time>2026-07-30T06:49:10Z</time>
        <extensions>
          <geotracker:meta c="3.8" s="3.62" />
        </extensions>
      </trkpt>
      <trkpt lat="20.39927692" lon="81.06117713">
        <ele>369.72</ele>
        <time>2026-07-30T06:49:13Z</time>
        <extensions>
          <geotracker:meta c="3.93" s="4.27" />
        </extensions>
      </trkpt>
      <trkpt lat="20.39916154" lon="81.06111875">
        <ele>369.8</ele>
        <time>2026-07-30T06:49:16Z</time>
        <extensions>
          <geotracker:meta c="3.33" s="4.48" />
        </extensions>
      </trkpt>
      <trkpt lat="20.39905307" lon="81.06109645">
        <ele>367.17</ele>
        <time>2026-07-30T06:49:18Z</time>
        <extensions>
          <geotracker:meta c="3.43" s="5.41" />
        </extensions>
      </trkpt>
      <trkpt lat="20.39895412" lon="81.06108071">
        <ele>365.91</ele>
        <time>2026-07-30T06:49:21Z</time>
        <extensions>
          <geotracker:meta c="3.34" s="4.02" />
        </extensions>
      </trkpt>
      <trkpt lat="20.39885933" lon="81.06105945">
        <ele>364.96</ele>
        <time>2026-07-30T06:49:24Z</time>
        <extensions>
          <geotracker:meta c="3.42" s="2.99" />
        </extensions>
      </trkpt>
      <trkpt lat="20.39877038" lon="81.06103534">
        <ele>364.72</ele>
        <time>2026-07-30T06:49:33Z</time>
        <extensions>
          <geotracker:meta s="0" />
        </extensions>
      </trkpt>
      <trkpt lat="20.3987176" lon="81.06092678">
        <ele>366.7</ele>
        <time>2026-07-30T06:49:44Z</time>
        <extensions>
          <geotracker:meta c="4.35" s="2.67" />
        </extensions>
      </trkpt>
      <trkpt lat="20.39868069" lon="81.0608128">
        <ele>365.92</ele>
        <time>2026-07-30T06:49:47Z</time>
        <extensions>
          <geotracker:meta c="4.7" s="3.24" />
        </extensions>
      </trkpt>
      <trkpt lat="20.39867348" lon="81.06070609">
        <ele>364.56</ele>
        <time>2026-07-30T06:49:49Z</time>
        <extensions>
          <geotracker:meta c="4.64" s="4.06" />
        </extensions>
      </trkpt>
      <trkpt lat="20.39864453" lon="81.06060507">
        <ele>363.67</ele>
        <time>2026-07-30T06:49:51Z</time>
        <extensions>
          <geotracker:meta c="4.22" s="4.07" />
        </extensions>
      </trkpt>
      <trkpt lat="20.39858574" lon="81.06052189">
        <ele>365.15</ele>
        <time>2026-07-30T06:49:53Z</time>
        <extensions>
          <geotracker:meta c="3.8" s="4.59" />
        </extensions>
      </trkpt>
      <trkpt lat="20.39848628" lon="81.06045272">
        <ele>364.82</ele>
        <time>2026-07-30T06:49:55Z</time>
        <extensions>
          <geotracker:meta c="3.67" s="5.07" />
        </extensions>
      </trkpt>
      <trkpt lat="20.39839984" lon="81.06040708">
        <ele>366.1</ele>
        <time>2026-07-30T06:49:57Z</time>
        <extensions>
          <geotracker:meta c="3.56" s="4.96" />
        </extensions>
      </trkpt>
      <trkpt lat="20.39831072" lon="81.06035948">
        <ele>367.35</ele>
        <time>2026-07-30T06:49:59Z</time>
        <extensions>
          <geotracker:meta c="3.52" s="5.15" />
        </extensions>
      </trkpt>
      <trkpt lat="20.39818407" lon="81.06032956">
        <ele>364.82</ele>
        <time>2026-07-30T06:50:02Z</time>
        <extensions>
          <geotracker:meta c="3.25" s="4.61" />
        </extensions>
      </trkpt>
      <trkpt lat="20.3980821" lon="81.06030565">
        <ele>364.16</ele>
        <time>2026-07-30T06:50:04Z</time>
        <extensions>
          <geotracker:meta c="3.33" s="4.77" />
        </extensions>
      </trkpt>
      <trkpt lat="20.397994" lon="81.06026672">
        <ele>363.38</ele>
        <time>2026-07-30T06:50:06Z</time>
        <extensions>
          <geotracker:meta c="3.58" s="5.5" />
        </extensions>
      </trkpt>
      <trkpt lat="20.3978886" lon="81.06021657">
        <ele>364.88</ele>
        <time>2026-07-30T06:50:08Z</time>
        <extensions>
          <geotracker:meta c="3.63" s="6.38" />
        </extensions>
      </trkpt>
      <trkpt lat="20.39777061" lon="81.06015996">
        <ele>365.55</ele>
        <time>2026-07-30T06:50:10Z</time>
        <extensions>
          <geotracker:meta c="3.57" s="6.87" />
        </extensions>
      </trkpt>
      <trkpt lat="20.39765347" lon="81.06009823">
        <ele>365.71</ele>
        <time>2026-07-30T06:50:12Z</time>
        <extensions>
          <geotracker:meta c="3.57" s="6.81" />
        </extensions>
      </trkpt>
      <trkpt lat="20.39754387" lon="81.06005378">
        <ele>366.05</ele>
        <time>2026-07-30T06:50:14Z</time>
        <extensions>
          <geotracker:meta c="3.51" s="5.87" />
        </extensions>
      </trkpt>
      <trkpt lat="20.39744362" lon="81.06001597">
        <ele>366.93</ele>
        <time>2026-07-30T06:50:16Z</time>
        <extensions>
          <geotracker:meta c="3.46" s="5.7" />
        </extensions>
      </trkpt>
      <trkpt lat="20.39735168" lon="81.05999287">
        <ele>366.54</ele>
        <time>2026-07-30T06:50:18Z</time>
        <extensions>
          <geotracker:meta c="3.48" s="5.38" />
        </extensions>
      </trkpt>
      <trkpt lat="20.39726536" lon="81.05996093">
        <ele>365.83</ele>
        <time>2026-07-30T06:50:20Z</time>
        <extensions>
          <geotracker:meta c="3.39" s="5.25" />
        </extensions>
      </trkpt>
      <trkpt lat="20.39716842" lon="81.05993729">
        <ele>363.86</ele>
        <time>2026-07-30T06:50:22Z</time>
        <extensions>
          <geotracker:meta c="3.5" s="5.46" />
        </extensions>
      </trkpt>
      <trkpt lat="20.39708643" lon="81.05987153">
        <ele>363.55</ele>
        <time>2026-07-30T06:50:24Z</time>
        <extensions>
          <geotracker:meta c="3.66" s="5.46" />
        </extensions>
      </trkpt>
      <trkpt lat="20.39701068" lon="81.05981589">
        <ele>365.01</ele>
        <time>2026-07-30T06:50:26Z</time>
        <extensions>
          <geotracker:meta c="3.88" s="5.14" />
        </extensions>
      </trkpt>
      <trkpt lat="20.3969555" lon="81.05973524">
        <ele>363.34</ele>
        <time>2026-07-30T06:50:28Z</time>
        <extensions>
          <geotracker:meta c="4.36" s="5.08" />
        </extensions>
      </trkpt>
      <trkpt lat="20.39691653" lon="81.059632">
        <ele>362.6</ele>
        <time>2026-07-30T06:50:30Z</time>
        <extensions>
          <geotracker:meta c="4.56" s="5.49" />
        </extensions>
      </trkpt>
      <trkpt lat="20.39689923" lon="81.05951584">
        <ele>362.27</ele>
        <time>2026-07-30T06:50:32Z</time>
        <extensions>
          <geotracker:meta c="4.69" s="5.75" />
        </extensions>
      </trkpt>
      <trkpt lat="20.39690692" lon="81.05940877">
        <ele>361.84</ele>
        <time>2026-07-30T06:50:34Z</time>
        <extensions>
          <geotracker:meta c="4.8" s="5.46" />
        </extensions>
      </trkpt>
      <trkpt lat="20.39691141" lon="81.05929925">
        <ele>361.21</ele>
        <time>2026-07-30T06:50:36Z</time>
        <extensions>
          <geotracker:meta c="4.85" s="5.39" />
        </extensions>
      </trkpt>
      <trkpt lat="20.39690003" lon="81.05916892">
        <ele>361.15</ele>
        <time>2026-07-30T06:50:39Z</time>
        <extensions>
          <geotracker:meta c="4.51" s="4.35" />
        </extensions>
      </trkpt>
      <trkpt lat="20.39689452" lon="81.05904898">
        <ele>358.98</ele>
        <time>2026-07-30T06:50:42Z</time>
        <extensions>
          <geotracker:meta c="4.39" s="3.82" />
        </extensions>
      </trkpt>
      <trkpt lat="20.39684604" lon="81.05895844">
        <ele>361.99</ele>
        <time>2026-07-30T06:50:45Z</time>
        <extensions>
          <geotracker:meta c="4.46" s="2.38" />
        </extensions>
      </trkpt>
      <trkpt lat="20.3968331" lon="81.05886079">
        <ele>364.52</ele>
        <time>2026-07-30T06:50:50Z</time>
        <extensions>
          <geotracker:meta c="4.68" s="2.9" />
        </extensions>
      </trkpt>
      <trkpt lat="20.39682722" lon="81.05873127">
        <ele>363.93</ele>
        <time>2026-07-30T06:50:54Z</time>
        <extensions>
          <geotracker:meta c="4.48" s="3.1" />
        </extensions>
      </trkpt>
      <trkpt lat="20.3967971" lon="81.0586081">
        <ele>365.14</ele>
        <time>2026-07-30T06:50:58Z</time>
        <extensions>
          <geotracker:meta c="4.26" s="3.02" />
        </extensions>
      </trkpt>
      <trkpt lat="20.39673187" lon="81.05852994">
        <ele>368.87</ele>
        <time>2026-07-30T06:51:02Z</time>
        <extensions>
          <geotracker:meta c="3.74" s="1.64" />
        </extensions>
      </trkpt>
      <trkpt lat="20.39667535" lon="81.05844931">
        <ele>372.5</ele>
        <time>2026-07-30T06:51:07Z</time>
        <extensions>
          <geotracker:meta c="3.67" s="1.45" />
        </extensions>
      </trkpt>
      <trkpt lat="20.39659813" lon="81.05839669">
        <ele>370.84</ele>
        <time>2026-07-30T06:51:11Z</time>
        <extensions>
          <geotracker:meta c="3.35" s="2.11" />
        </extensions>
      </trkpt>
      <trkpt lat="20.39650318" lon="81.05838616">
        <ele>367.85</ele>
        <time>2026-07-30T06:51:15Z</time>
        <extensions>
          <geotracker:meta c="2.98" s="2.15" />
        </extensions>
      </trkpt>
      <trkpt lat="20.3963949" lon="81.05840773">
        <ele>368.24</ele>
        <time>2026-07-30T06:51:19Z</time>
        <extensions>
          <geotracker:meta c="2.81" s="2.16" />
        </extensions>
      </trkpt>
      <trkpt lat="20.39630427" lon="81.05839883">
        <ele>365.64</ele>
        <time>2026-07-30T06:51:23Z</time>
        <extensions>
          <geotracker:meta c="3.41" s="2.16" />
        </extensions>
      </trkpt>
      <trkpt lat="20.39620548" lon="81.05835108">
        <ele>364.61</ele>
        <time>2026-07-30T06:51:27Z</time>
        <extensions>
          <geotracker:meta c="3.94" s="2.06" />
        </extensions>
      </trkpt>
      <trkpt lat="20.39614334" lon="81.05827526">
        <ele>361.71</ele>
        <time>2026-07-30T06:51:32Z</time>
        <extensions>
          <geotracker:meta c="4.34" s="1.8" />
        </extensions>
      </trkpt>
      <trkpt lat="20.39612776" lon="81.05816786">
        <ele>361.55</ele>
        <time>2026-07-30T06:51:36Z</time>
        <extensions>
          <geotracker:meta c="5.01" s="2.44" />
        </extensions>
      </trkpt>
      <trkpt lat="20.39611341" lon="81.05806065">
        <ele>361.92</ele>
        <time>2026-07-30T06:51:42Z</time>
        <extensions>
          <geotracker:meta c="4.47" s="1.4" />
        </extensions>
      </trkpt>
      <trkpt lat="20.39607217" lon="81.05797146">
        <ele>359.52</ele>
        <time>2026-07-30T06:51:47Z</time>
        <extensions>
          <geotracker:meta c="4.18" s="1.14" />
        </extensions>
      </trkpt>
      <trkpt lat="20.39601241" lon="81.05789753">
        <ele>360.47</ele>
        <time>2026-07-30T06:52:44Z</time>
        <extensions>
          <geotracker:meta c="3.98" s="0.82" />
        </extensions>
      </trkpt>
      <trkpt lat="20.39595284" lon="81.05782374">
        <ele>359.57</ele>
        <time>2026-07-30T06:53:00Z</time>
        <extensions>
          <geotracker:meta c="4.11" s="0.87" />
        </extensions>
      </trkpt>
      <trkpt lat="20.39593836" lon="81.05769685">
        <ele>357.82</ele>
        <time>2026-07-30T06:53:29Z</time>
        <extensions>
          <geotracker:meta c="4.77" s="0.54" />
        </extensions>
      </trkpt>
      <trkpt lat="20.39594521" lon="81.05760111">
        <ele>358.35</ele>
        <time>2026-07-30T06:53:47Z</time>
        <extensions>
          <geotracker:meta c="4.69" s="0.95" />
        </extensions>
      </trkpt>
      <trkpt lat="20.39595121" lon="81.05750225">
        <ele>356.15</ele>
        <time>2026-07-30T06:53:54Z</time>
        <extensions>
          <geotracker:meta c="4.79" s="1.92" />
        </extensions>
      </trkpt>
      <trkpt lat="20.39596283" lon="81.05740018">
        <ele>354.58</ele>
        <time>2026-07-30T06:54:00Z</time>
        <extensions>
          <geotracker:meta c="4.55" s="1.81" />
        </extensions>
      </trkpt>
      <trkpt lat="20.39599269" lon="81.05730285">
        <ele>355.32</ele>
        <time>2026-07-30T06:54:07Z</time>
        <extensions>
          <geotracker:meta c="5.9" s="1.45" />
        </extensions>
      </trkpt>
    </trkseg>
  </trk>
</gpx>